[{"OBJECT_NAME":"STARLINK-2292","OBJECT_ID":"2021-024AY","EPOCH":"2026-03-10T00:00:02.999808","MEAN_MOTION":15.13637782,"ECCENTRICITY":0.00019543,"INCLINATION":53.0827,"RA_OF_ASC_NODE":330.0861,"ARG_OF_PERICENTER":75.6731,"MEAN_ANOMALY":66.4802,"EPHEMERIS_TYPE":0,"CLASSIFICATION_TYPE":"U","NORAD_CAT_ID":48023,"ELEMENT_SET_NO":999,"REV_AT_EPOCH":579,"BSTAR":0.001671296,"MEAN_MOTION_DOT":0.00030213,"MEAN_MOTION_DDOT":0},{"OBJECT_NAME":"PVCC","OBJECT_ID":"2023-155K","EPOCH":"2026-03-09T22:53:45.550752","MEAN_MOTION":15.14680593,"ECCENTRICITY":0.00057691,"INCLINATION":97.5765,"RA_OF_ASC_NODE":145.8322,"ARG_OF_PERICENTER":112.5424,"MEAN_ANOMALY":247.6419,"EPHEMERIS_TYPE":0,"CLASSIFICATION_TYPE":"U","NORAD_CAT_ID":58025,"ELEMENT_SET_NO":999,"REV_AT_EPOCH":13295,"BSTAR":0.00050695822,"MEAN_MOTION_DOT":9.322e-5,"MEAN_MOTION_DDOT":0}]
